{
  "60517": {
    "name": "PlanetScope-60517",
    "line1": "1 60517U 24149BB  26070.79638002  .00019066  00000-0  51529-3 0  9996",
    "line2": "2 60517  97.3740 153.9329 0003362 276.0590  84.0271 15.37773611 87341",
    "meta": {
      "display_name": "PlanetScope-60517",
      "type": "optical",
      "swath_km": 8.0,
      "resolution_m": 4.0,
      "off_nadir_deg": 0,
      "altitude_km": 525.0,
      "priority": 10
    }
  },
  "60539": {
    "name": "ICEYE-60539",
    "line1": "1 60539U 24149BZ  26070.74434891  .00004011  00000-0  33278-3 0  9990",
    "line2": "2 60539  97.6821 149.0301 0002473  59.1952 300.9514 14.99353080 85516",
    "meta": {
      "display_name": "ICEYE-60539",
      "type": "sar",
      "swath_km": 5.0,
      "resolution_m": 1.0,
      "off_nadir_deg": 40,
      "altitude_km": 580.0,
      "priority": 10
    }
  },
  "60546": {
    "name": "ICEYE-60546",
    "line1": "1 60546U 24149CG  26070.78949833  .00003243  00000-0  27080-3 0  9999",
    "line2": "2 60546  97.6845 149.1364 0004952  44.8647 315.2976 14.99240527 85529",
    "meta": {
      "display_name": "ICEYE-60546",
      "type": "sar",
      "swath_km": 5.0,
      "resolution_m": 1.0,
      "off_nadir_deg": 40,
      "altitude_km": 580.0,
      "priority": 10
    }
  },
  "60548": {
    "name": "ICEYE-60548",
    "line1": "1 60548U 24149CJ  26070.77764276  .00005356  00000-0  42234-3 0  9991",
    "line2": "2 60548  97.7034 150.6010 0005999 116.8799 243.3039 15.01157703 85592",
    "meta": {
      "display_name": "ICEYE-60548",
      "type": "sar",
      "swath_km": 5.0,
      "resolution_m": 1.0,
      "off_nadir_deg": 40,
      "altitude_km": 580.0,
      "priority": 10
    }
  },
  "60549": {
    "name": "ICEYE-60549",
    "line1": "1 60549U 24149CK  26070.76371584  .00003252  00000-0  28340-3 0  9992",
    "line2": "2 60549  97.6861 148.8299 0005987  59.4938 300.6875 14.97570846 85497",
    "meta": {
      "display_name": "ICEYE-60549",
      "type": "sar",
      "swath_km": 5.0,
      "resolution_m": 1.0,
      "off_nadir_deg": 40,
      "altitude_km": 580.0,
      "priority": 10
    }
  },
  "62384": {
    "name": "ICEYE-62384",
    "line1": "1 62384U 24247H   26070.29162206  .00008281  00000-0  48815-3 0  9993",
    "line2": "2 62384  44.9966 159.6582 0002116 252.6320 107.4326 15.12021206 67353",
    "meta": {
      "display_name": "ICEYE-62384",
      "type": "sar",
      "swath_km": 5.0,
      "resolution_m": 1.0,
      "off_nadir_deg": 40,
      "altitude_km": 580.0,
      "priority": 10
    }
  },
  "62389": {
    "name": "ICEYE-62389",
    "line1": "1 62389U 24247N   26070.94473133  .00006197  00000-0  36659-3 0  9991",
    "line2": "2 62389  44.9948 155.9999 0001292 281.3317  78.7415 15.12264387 67457",
    "meta": {
      "display_name": "ICEYE-62389",
      "type": "sar",
      "swath_km": 5.0,
      "resolution_m": 1.0,
      "off_nadir_deg": 40,
      "altitude_km": 580.0,
      "priority": 10
    }
  },
  "62698": {
    "name": "ICEYE-62698",
    "line1": "1 62698U 25009CT  26070.88470527  .00002712  00000-0  27414-3 0  9996",
    "line2": "2 62698  97.7384 150.9465 0001112 114.8006 245.3329 14.91833311 62781",
    "meta": {
      "display_name": "ICEYE-62698",
      "type": "sar",
      "swath_km": 5.0,
      "resolution_m": 1.0,
      "off_nadir_deg": 40,
      "altitude_km": 580.0,
      "priority": 10
    }
  },
  "62700": {
    "name": "ICEYE-62700",
    "line1": "1 62700U 25009CV  26070.77832442  .00004562  00000-0  41082-3 0  9998",
    "line2": "2 62700  97.7115 151.7571 0001831  48.4919 311.6459 14.96093488 62843",
    "meta": {
      "display_name": "ICEYE-62700",
      "type": "sar",
      "swath_km": 5.0,
      "resolution_m": 1.0,
      "off_nadir_deg": 40,
      "altitude_km": 580.0,
      "priority": 10
    }
  },
  "62705": {
    "name": "ICEYE-62705",
    "line1": "1 62705U 25009DA  26070.79072473  .00001611  00000-0  13150-3 0  9992",
    "line2": "2 62705  97.8057 156.8936 0000878  72.8248 287.3072 15.00863928 63077",
    "meta": {
      "display_name": "ICEYE-62705",
      "type": "sar",
      "swath_km": 5.0,
      "resolution_m": 1.0,
      "off_nadir_deg": 40,
      "altitude_km": 580.0,
      "priority": 10
    }
  },
  "62707": {
    "name": "ICEYE-62707",
    "line1": "1 62707U 25009DC  26070.81433748  .00003420  00000-0  31473-3 0  9991",
    "line2": "2 62707  97.7092 151.5109 0002461 100.2340 259.9158 14.95399122 85381",
    "meta": {
      "display_name": "ICEYE-62707",
      "type": "sar",
      "swath_km": 5.0,
      "resolution_m": 1.0,
      "off_nadir_deg": 40,
      "altitude_km": 580.0,
      "priority": 10
    }
  },
  "63229": {
    "name": "SpaceEye-T",
    "line1": "1 63229U 25052V   26070.63308861  .00006593  00000-0  29564-3 0  9998",
    "line2": "2 63229  97.4063 324.7473 0006306 121.4579 238.7274 15.21529170 55003",
    "meta": {
      "display_name": "SpaceEye-T",
      "type": "optical",
      "swath_km": 12,
      "resolution_m": 0.25,
      "off_nadir_deg": 45,
      "altitude_km": 510,
      "priority": 1
    }
  }
}